[{"OBJECT_NAME":"STARLINK-3056","OBJECT_ID":"2021-082AF","EPOCH":"2025-09-30T04:45:03.277440","MEAN_MOTION":14.98332681,"ECCENTRICITY":0.0002958,"INCLINATION":69.9999,"RA_OF_ASC_NODE":339.1147,"ARG_OF_PERICENTER":269.572,"MEAN_ANOMALY":90.51,"EPHEMERIS_TYPE":0,"CLASSIFICATION_TYPE":"U","NORAD_CAT_ID":49159,"ELEMENT_SET_NO":999,"REV_AT_EPOCH":22303,"BSTAR":3.3366299e-5,"MEAN_MOTION_DOT":3.05e-6,"MEAN_MOTION_DDOT":0},{"OBJECT_NAME":"STARLINK-3095","OBJECT_ID":"2021-082AG","EPOCH":"2025-09-29T22:02:30.103008","MEAN_MOTION":14.98318494,"ECCENTRICITY":0.0002711,"INCLINATION":69.9999,"RA_OF_ASC_NODE":339.8022,"ARG_OF_PERICENTER":266.1601,"MEAN_ANOMALY":93.9248,"EPHEMERIS_TYPE":0,"CLASSIFICATION_TYPE":"U","NORAD_CAT_ID":49160,"ELEMENT_SET_NO":999,"REV_AT_EPOCH":22296,"BSTAR":0.00010534,"MEAN_MOTION_DOT":1.164e-5,"MEAN_MOTION_DDOT":0},{"OBJECT_NAME":"STARLINK-3080","OBJECT_ID":"2021-082AH","EPOCH":"2025-09-29T22:08:29.654016","MEAN_MOTION":14.9833656,"ECCENTRICITY":0.0003988,"INCLINATION":69.9997,"RA_OF_ASC_NODE":339.7876,"ARG_OF_PERICENTER":270.3833,"MEAN_ANOMALY":89.6869,"EPHEMERIS_TYPE":0,"CLASSIFICATION_TYPE":"U","NORAD_CAT_ID":49161,"ELEMENT_SET_NO":999,"REV_AT_EPOCH":22297,"BSTAR":6.6199e-5,"MEAN_MOTION_DOT":6.97e-6,"MEAN_MOTION_DDOT":0},{"OBJECT_NAME":"STARLINK-3088","OBJECT_ID":"2021-082AK","EPOCH":"2025-09-30T04:52:53.931936","MEAN_MOTION":14.97533409,"ECCENTRICITY":0.00032475,"INCLINATION":69.9996,"RA_OF_ASC_NODE":319.3775,"ARG_OF_PERICENTER":268.047,"MEAN_ANOMALY":92.0317,"EPHEMERIS_TYPE":0,"CLASSIFICATION_TYPE":"U","NORAD_CAT_ID":49163,"ELEMENT_SET_NO":999,"REV_AT_EPOCH":22358,"BSTAR":5.0095523e-5,"MEAN_MOTION_DOT":4.93e-6,"MEAN_MOTION_DDOT":0},{"OBJECT_NAME":"STARLINK-3106","OBJECT_ID":"2021-082AL","EPOCH":"2025-09-29T13:07:24.865248","MEAN_MOTION":14.98329526,"ECCENTRICITY":0.00028304,"INCLINATION":70.0001,"RA_OF_ASC_NODE":320.7475,"ARG_OF_PERICENTER":263.2401,"MEAN_ANOMALY":96.8436,"EPHEMERIS_TYPE":0,"CLASSIFICATION_TYPE":"U","NORAD_CAT_ID":49164,"ELEMENT_SET_NO":999,"REV_AT_EPOCH":22350,"BSTAR":3.18468e-7,"MEAN_MOTION_DOT":-8.9e-7,"MEAN_MOTION_DDOT":0},{"OBJECT_NAME":"STARLINK-3052","OBJECT_ID":"2021-082AM","EPOCH":"2025-09-29T12:19:40.696608","MEAN_MOTION":14.98330834,"ECCENTRICITY":0.00032249,"INCLINATION":69.9998,"RA_OF_ASC_NODE":340.8542,"ARG_OF_PERICENTER":269.9359,"MEAN_ANOMALY":90.143,"EPHEMERIS_TYPE":0,"CLASSIFICATION_TYPE":"U","NORAD_CAT_ID":49165,"ELEMENT_SET_NO":999,"REV_AT_EPOCH":22303,"BSTAR":1.5711678e-5,"MEAN_MOTION_DOT":9.4e-7,"MEAN_MOTION_DDOT":0},{"OBJECT_NAME":"STARLINK-3089","OBJECT_ID":"2021-082AN","EPOCH":"2025-09-29T12:44:59.672544","MEAN_MOTION":14.97550669,"ECCENTRICITY":0.00029794,"INCLINATION":70.0013,"RA_OF_ASC_NODE":321.0761,"ARG_OF_PERICENTER":276.1569,"MEAN_ANOMALY":83.925,"EPHEMERIS_TYPE":0,"CLASSIFICATION_TYPE":"U","NORAD_CAT_ID":49166,"ELEMENT_SET_NO":999,"REV_AT_EPOCH":22352,"BSTAR":0.00079515009,"MEAN_MOTION_DOT":9.219e-5,"MEAN_MOTION_DDOT":0},{"OBJECT_NAME":"STARLINK-3054","OBJECT_ID":"2021-082AP","EPOCH":"2025-09-29T21:44:27.725280","MEAN_MOTION":14.98331997,"ECCENTRICITY":0.0002988,"INCLINATION":70.0005,"RA_OF_ASC_NODE":339.8444,"ARG_OF_PERICENTER":253.699,"MEAN_ANOMALY":106.384,"EPHEMERIS_TYPE":0,"CLASSIFICATION_TYPE":"U","NORAD_CAT_ID":49167,"ELEMENT_SET_NO":999,"REV_AT_EPOCH":22309,"BSTAR":0.00012164,"MEAN_MOTION_DOT":1.359e-5,"MEAN_MOTION_DDOT":0},{"OBJECT_NAME":"STARLINK-3046","OBJECT_ID":"2021-082AR","EPOCH":"2025-09-30T01:50:28.419648","MEAN_MOTION":14.9833512,"ECCENTRICITY":0.0002942,"INCLINATION":69.9994,"RA_OF_ASC_NODE":319.4293,"ARG_OF_PERICENTER":264.7165,"MEAN_ANOMALY":95.3658,"EPHEMERIS_TYPE":0,"CLASSIFICATION_TYPE":"U","NORAD_CAT_ID":49169,"ELEMENT_SET_NO":999,"REV_AT_EPOCH":22241,"BSTAR":4.0670507e-5,"MEAN_MOTION_DOT":3.92e-6,"MEAN_MOTION_DDOT":0},{"OBJECT_NAME":"STARLINK-3107","OBJECT_ID":"2021-082AT","EPOCH":"2025-09-29T12:21:02.030112","MEAN_MOTION":15.02672912,"ECCENTRICITY":0.0001288,"INCLINATION":69.9998,"RA_OF_ASC_NODE":339.7097,"ARG_OF_PERICENTER":251.7571,"MEAN_ANOMALY":108.3451,"EPHEMERIS_TYPE":0,"CLASSIFICATION_TYPE":"U","NORAD_CAT_ID":49171,"ELEMENT_SET_NO":999,"REV_AT_EPOCH":22302,"BSTAR":0.0027850297,"MEAN_MOTION_DOT":0.00037325,"MEAN_MOTION_DDOT":0},{"OBJECT_NAME":"STARLINK-3045","OBJECT_ID":"2021-082AV","EPOCH":"2025-09-30T03:08:35.329344","MEAN_MOTION":14.98328746,"ECCENTRICITY":0.00028754,"INCLINATION":69.9995,"RA_OF_ASC_NODE":319.2748,"ARG_OF_PERICENTER":261.5808,"MEAN_ANOMALY":98.5025,"EPHEMERIS_TYPE":0,"CLASSIFICATION_TYPE":"U","NORAD_CAT_ID":49173,"ELEMENT_SET_NO":999,"REV_AT_EPOCH":22242,"BSTAR":2.3547246e-5,"MEAN_MOTION_DOT":1.88e-6,"MEAN_MOTION_DDOT":0},{"OBJECT_NAME":"STARLINK-3047","OBJECT_ID":"2021-082AW","EPOCH":"2025-09-30T08:00:01.999872","MEAN_MOTION":15.80883674,"ECCENTRICITY":0.00047836,"INCLINATION":69.9752,"RA_OF_ASC_NODE":253.1795,"ARG_OF_PERICENTER":292.5679,"MEAN_ANOMALY":41.5792,"EPHEMERIS_TYPE":0,"CLASSIFICATION_TYPE":"U","NORAD_CAT_ID":49174,"ELEMENT_SET_NO":999,"REV_AT_EPOCH":597,"BSTAR":0.001970121,"MEAN_MOTION_DOT":0.00399571,"MEAN_MOTION_DDOT":0},{"OBJECT_NAME":"STARLINK-3087","OBJECT_ID":"2021-082AX","EPOCH":"2025-09-29T13:28:08.868864","MEAN_MOTION":14.97524881,"ECCENTRICITY":0.0003426,"INCLINATION":69.9993,"RA_OF_ASC_NODE":321.1304,"ARG_OF_PERICENTER":268.1852,"MEAN_ANOMALY":91.8914,"EPHEMERIS_TYPE":0,"CLASSIFICATION_TYPE":"U","NORAD_CAT_ID":49175,"ELEMENT_SET_NO":999,"REV_AT_EPOCH":22232,"BSTAR":7.867158e-5,"MEAN_MOTION_DOT":8.27e-6,"MEAN_MOTION_DDOT":0},{"OBJECT_NAME":"STARLINK-3069","OBJECT_ID":"2021-082AY","EPOCH":"2025-09-30T05:08:25.002528","MEAN_MOTION":14.98335199,"ECCENTRICITY":0.00032159,"INCLINATION":69.998,"RA_OF_ASC_NODE":299.0668,"ARG_OF_PERICENTER":267.7901,"MEAN_ANOMALY":92.289,"EPHEMERIS_TYPE":0,"CLASSIFICATION_TYPE":"U","NORAD_CAT_ID":49176,"ELEMENT_SET_NO":999,"REV_AT_EPOCH":22292,"BSTAR":2.8497154e-5,"MEAN_MOTION_DOT":2.47e-6,"MEAN_MOTION_DDOT":0},{"OBJECT_NAME":"STARLINK-3103","OBJECT_ID":"2021-082AZ","EPOCH":"2025-09-30T04:02:19.784256","MEAN_MOTION":14.98332684,"ECCENTRICITY":0.00030235,"INCLINATION":69.9978,"RA_OF_ASC_NODE":299.194,"ARG_OF_PERICENTER":269.0067,"MEAN_ANOMALY":91.0745,"EPHEMERIS_TYPE":0,"CLASSIFICATION_TYPE":"U","NORAD_CAT_ID":49177,"ELEMENT_SET_NO":999,"REV_AT_EPOCH":22411,"BSTAR":5.86704e-5,"MEAN_MOTION_DOT":6.07e-6,"MEAN_MOTION_DDOT":0},{"OBJECT_NAME":"STARLINK-3086","OBJECT_ID":"2021-082BA","EPOCH":"2025-09-29T22:14:30.514848","MEAN_MOTION":14.98332249,"ECCENTRICITY":0.0002953,"INCLINATION":70,"RA_OF_ASC_NODE":339.7859,"ARG_OF_PERICENTER":268.6467,"MEAN_ANOMALY":91.4353,"EPHEMERIS_TYPE":0,"CLASSIFICATION_TYPE":"U","NORAD_CAT_ID":49178,"ELEMENT_SET_NO":999,"REV_AT_EPOCH":22305,"BSTAR":2.0136e-5,"MEAN_MOTION_DOT":1.47e-6,"MEAN_MOTION_DDOT":0}]
