STARLINK-3056           
1 49159U 21082AF  25273.19795460  .00000305  00000+0  33366-4 0  9993
2 49159  69.9999 339.1147 0002958 269.5720  90.5100 14.98332681223034
STARLINK-3095           
1 49160U 21082AG  25272.91840397  .00001164  00000+0  10534-3 0  9999
2 49160  69.9999 339.8022 0002711 266.1601  93.9248 14.98318494222960
STARLINK-3080           
1 49161U 21082AH  25272.92256544  .00000697  00000+0  66199-4 0  9995
2 49161  69.9997 339.7876 0003988 270.3833  89.6869 14.98336560222972
STARLINK-3088           
1 49163U 21082AK  25273.20340199  .00000493  00000+0  50096-4 0  9992
2 49163  69.9996 319.3775 0003247 268.0470  92.0317 14.97533409223588
STARLINK-3106           
1 49164U 21082AL  25272.54681557 -.00000089  00000+0  31847-6 0  9992
2 49164  70.0001 320.7475 0002830 263.2401  96.8436 14.98329526223500
STARLINK-3052           
1 49165U 21082AM  25272.51366547  .00000094  00000+0  15712-4 0  9995
2 49165  69.9998 340.8542 0003224 269.9359  90.1430 14.98330834223037
STARLINK-3089           
1 49166U 21082AN  25272.53124621  .00009219  00000+0  79515-3 0  9991
2 49166  70.0013 321.0761 0002979 276.1569  83.9250 14.97550669223525
STARLINK-3054           
1 49167U 21082AP  25272.90587645  .00001359  00000+0  12164-3 0  9996
2 49167  70.0005 339.8444 0002988 253.6990 106.3840 14.98331997223099
STARLINK-3046           
1 49169U 21082AR  25273.07671782  .00000392  00000+0  40671-4 0  9994
2 49169  69.9994 319.4293 0002942 264.7165  95.3658 14.98335120222419
STARLINK-3107           
1 49171U 21082AT  25272.51460683  .00037325  00000+0  27850-2 0  9999
2 49171  69.9998 339.7097 0001288 251.7571 108.3451 15.02672912223025
STARLINK-3045           
1 49173U 21082AV  25273.13096446  .00000188  00000+0  23547-4 0  9990
2 49173  69.9995 319.2748 0002875 261.5808  98.5025 14.98328746222422
STARLINK-3047           
1 49174U 21082AW  25273.33335648  .00399571  00000+0  19701-2 0  9995
2 49174  69.9752 253.1795 0004783 292.5679  41.5792 15.80883674  5978
STARLINK-3087           
1 49175U 21082AX  25272.56121376  .00000827  00000+0  78672-4 0  9998
2 49175  69.9993 321.1304 0003426 268.1852  91.8914 14.97524881222326
STARLINK-3069           
1 49176U 21082AY  25273.21417827  .00000247  00000+0  28497-4 0  9997
2 49176  69.9980 299.0668 0003215 267.7901  92.2890 14.98335199222922
STARLINK-3103           
1 49177U 21082AZ  25273.16828454  .00000607  00000+0  58670-4 0  9990
2 49177  69.9978 299.1940 0003023 269.0067  91.0745 14.98332684224114
STARLINK-3086           
1 49178U 21082BA  25272.92674207  .00000147  00000+0  20136-4 0  9994
2 49178  70.0000 339.7859 0002953 268.6467  91.4353 14.98332249223052
